MALLIGYONG-1            
1 58400U 23179A   24244.21447012  .00018313  00000+0  79432-3 0  9999
2 58400  97.3922 129.7999 0000555  63.6115 296.5178 15.22403556 43136
